GPS BIIF-4              
1 39166U 13023A   26086.91490065  .00000006  00000+0  00000+0 0  9994
2 39166  54.5687 272.2822 0141941  50.2899 310.9532  2.00563931 94252
INSAT-3D                
1 39216U 13038B   26087.58586462 -.00000357  00000+0  00000+0 0  9997
2 39216   1.7184  83.5523 0001601 245.5865 197.3150  1.00269078 46271
GPS BIIF-5              
1 39533U 14008A   26087.41311887 -.00000002  00000+0  00000+0 0  9993
2 39533  53.6397 152.6153 0083084 229.1635 130.1722  2.00554546 88061
LUCH 5V                 
1 39727U 14023A   26087.49219256 -.00000284  00000+0  00000+0 0  9992
2 39727   4.9349  70.5298 0002457 302.4026  84.9031  1.00272193 43552
GPS BIIF-6              
1 39741U 14026A   26087.19137739 -.00000084  00000+0  00000+0 0  9991
2 39741  56.5350 334.6726 0039518 325.7427  34.0463  2.00566865 86919
GPS BIIF-7              
1 40105U 14045A   26087.28045198  .00000041  00000+0  00000+0 0  9997
2 40105  55.2986  91.6863 0031377 119.9296 240.4172  2.00553048 84456
GSAT0201 (GALILEO 5)    
1 40128U 14050A   26085.95211835 -.00000004  00000+0  00000+0 0  9993
2 40128  48.9652 276.8011 1661372 176.1891 185.2559  1.85519926 76795
GSAT0202 (GALILEO 6)    
1 40129U 14050B   26085.12998542  .00000003  00000+0  00000+0 0  9998
2 40129  48.9839 275.9195 1662233 176.8927 184.2876  1.85520606 78947
GPS BIIF-8              
1 40294U 14068A   26086.65813022 -.00000070  00000+0  00000+0 0  9993
2 40294  56.9354  34.0960 0063895  68.2397 292.4250  2.00571381 83575
GLONASS-K 2             
1 40315U 14075A   26084.30325579  .00000001  00000+0  00000+0 0  9993
2 40315  63.6158 193.2737 0021182 207.3153 152.5805  2.13101287 88064
GPS BIIF-9              
1 40534U 15013A   26086.29205244 -.00000029  00000+0  00000+0 0  9996
2 40534  53.1810 207.5638 0108792  39.9071 320.8617  2.00556171 80184
GSAT0203 (GALILEO 7)    
1 40544U 15017A   26086.67777373 -.00000097  00000+0  00000+0 0  9995
2 40544  56.8123 343.8202 0003036 318.8222  41.1887  1.70475469 67818
GSAT0204 (GALILEO 8)    
1 40545U 15017B   26086.34677115 -.00000097  00000+0  00000+0 0  9993
2 40545  56.8192 343.8470 0003314 290.4029  69.5952  1.70475336 30855
GPS BIIF-10             
1 40730U 15033A   26086.95074998  .00000004  00000+0  00000+0 0  9991
2 40730  54.0472 270.4335 0114860  29.4650 331.1739  2.00560324 78361
METEOSAT-11 (MSG-4)     
1 40732U 15034A   26087.54661338  .00000045  00000+0  00000+0 0  9995
2 40732   2.9988  71.5362 0001776 284.8455  35.5843  1.00273736  6402
GSAT0205 (GALILEO 9)    
1 40889U 15045A   26086.36399919 -.00000011  00000+0  00000+0 0  9996
2 40889  54.9729 223.9518 0004152 269.7313  90.1696  1.67410754 65591
GSAT0206 (GALILEO 10)   
1 40890U 15045B   26086.92205734 -.00000016  00000+0  00000+0 0  9996
2 40890  54.9720 223.8461 0003014  48.8202 311.1530  1.70473776 65656
